OBJECT_NAME,OBJECT_ID,EPOCH,MEAN_MOTION,ECCENTRICITY,INCLINATION,RA_OF_ASC_NODE,ARG_OF_PERICENTER,MEAN_ANOMALY,EPHEMERIS_TYPE,CLASSIFICATION_TYPE,NORAD_CAT_ID,ELEMENT_SET_NO,REV_AT_EPOCH,BSTAR,MEAN_MOTION_DOT,MEAN_MOTION_DDOT
CUBEBUG-2 (LO-74),2013-066AA,2026-07-07T07:00:14.378112,14.93935374,.00562365,97.8912,137.3576,322.3373,37.3914,0,U,39440,999,67999,.23991058E-3,.257E-4,0
FUNCUBE-1 (AO-73),2013-066AE,2026-07-06T21:00:48.915360,15.09744377,.00375361,97.8282,159.7358,134.9216,225.5068,0,U,39444,999,68263,.37306054E-3,.6051E-4,0
UWE-3,2013-066AG,2026-07-07T08:00:24.462144,14.97168353,.00474974,97.8699,144.5465,252.0164,107.5878,0,U,39446,999,68059,.18296688E-3,.2099E-4,0
UNISAT-6,2014-033C,2026-07-07T08:53:02.476320,14.88345132,.0044829,97.7902,340.7302,3.7872,356.3675,0,U,40012,999,64916,.23037182E-3,.2115E-4,0
DUCHIFAT-1,2014-033M,2026-07-06T16:39:29.773440,15.69242725,.00011489,98.0433,249.6610,272.1888,87.9241,0,U,40021,999,65880,.10017574E-2,.117855E-2,0
QB50P1,2014-033R,2026-07-06T23:39:44.400384,15.18579991,.00097754,98.0969,200.5237,149.2946,210.8860,0,U,40025,999,65603,.32909575E-3,.6736E-4,0
LILACSAT-2,2015-049K,2026-07-07T14:02:10.838688,15.52160922,.00077632,97.4628,226.2078,164.5444,195.6047,0,U,40908,999,59891,.22646229E-3,.13623E-3,0
FOX-1A (AO-85),2015-058D,2026-07-07T12:59:41.834688,14.91059408,.0131774,64.7734,215.7243,48.7119,312.5249,0,U,40967,999,11660,.17268747E-3,.1843E-4,0
CAS-2T & KS-1Q,2016-066G,2026-07-07T04:29:11.576256,14.44757435,.03426263,98.3815,263.6944,69.0010,294.7475,0,U,41847,999,50768,.17577224E-3,.1203E-4,0
RADFXSAT (FOX-1B),2017-073E,2026-07-07T01:12:49.095936,15.12990086,.01481597,97.4678,54.8599,259.9195,98.5293,0,U,43017,999,46839,.24355884E-3,.5556E-4,0
DIWATA-2B,2018-084H,2026-07-07T13:49:03.675072,15.00543973,.00130759,98.1217,25.6751,107.6279,252.6373,0,U,43678,999,41927,.1632807E-3,.1997E-4,0
ES'HAIL 2,2018-090A,2026-07-07T13:52:12.702720,1.00272567,.00023182,0.0166,300.3831,211.6334,7.3926,0,U,43700,999,2788,0,.159E-5,0
FOX-1CLIFF (AO-95),2018-099N,2026-07-07T03:08:32.809056,15.27157172,.000693,97.4372,248.3079,274.3916,85.6531,0,U,43770,999,41626,.31833501E-3,.8409E-4,0
ITASAT,2018-099AE,2026-07-06T17:11:00.697920,15.19312324,.00107233,97.4015,238.8395,284.8338,75.1709,0,U,43786,999,41587,.22247843E-3,.4636E-4,0
JY1SAT (JO-97),2018-099AX,2026-07-05T14:55:56.187840,15.34293802,.00059834,97.4115,249.5264,188.7802,171.3337,0,U,43803,999,41645,.68069126E-3,.22572E-3,0
UWE-4,2018-111E,2026-07-07T06:29:11.143104,15.47445667,.00048923,97.5838,117.6044,228.1890,131.8942,0,U,43880,999,41388,.4960896E-3,.25394E-3,0
TIANYAN 01,2019-093C,2026-07-07T13:47:48.130368,14.86556986,.00142671,97.7521,260.3098,26.0787,334.1144,0,U,44881,999,35444,.15153994E-3,.1291E-4,0
RS-44 & BREEZE-KM R/B,2019-096E,2026-07-07T07:58:23.585088,12.79748960,.02185962,82.5237,326.3182,97.2854,265.3149,0,U,44909,999,30492,.20916178E-4,.18E-6,0
SALSAT,2020-068K,2026-07-06T23:06:33.434208,15.30092809,.0008388,97.8858,192.2352,224.1445,135.9125,0,U,46495,999,31838,.20798571E-3,.5977E-4,0
XW-3 (CAS-9),2021-131B,2026-07-07T14:27:40.820256,14.41378352,.0004984,98.4982,280.8827,49.7875,310.3749,0,U,50466,999,23805,.19466973E-3,.586E-5,0
GREENCUBE (IO-117),2022-080E,2026-07-07T06:16:24.697344,6.42583238,.00089686,70.1426,291.2647,285.4121,74.5548,0,U,53109,999,9335,0,-.3E-7,0
UMKA 1 (RS40S),2023-091G,2026-07-07T13:19:06.537792,15.21064138,.00136979,97.5038,247.1755,54.2930,305.9578,0,U,57172,999,16710,.1929937E-3,.4227E-4,0
CUBESX-HSE 3 (RS42S),2023-091N,2026-07-07T13:25:45.615072,15.31754019,.0010488,97.5079,254.4100,28.8678,331.3142,0,U,57178,999,16754,.29830929E-3,.9083E-4,0
MONITOR-3 (RS58S),2023-091Q,2026-07-07T13:32:24.481536,15.28271235,.00118054,97.5071,252.1639,35.8656,324.3374,0,U,57180,999,16740,.25880364E-3,.7065E-4,0
MONITOR-4 (RS57S),2023-091S,2026-07-07T14:34:54.012576,15.28357684,.00118005,97.5065,252.1799,36.1351,324.0684,0,U,57182,999,16741,.25708561E-3,.7037E-4,0
MONITOR-2 (RS39S),2023-091U,2026-07-07T14:26:56.716512,15.19108552,.00121002,97.5060,246.7539,48.5548,311.6723,0,U,57184,999,16705,.15594508E-3,.3209E-4,0
SVYATOBOR 1 (RS60S),2023-091X,2026-07-07T13:45:14.795424,15.26977602,.000953,97.5077,252.5061,30.8143,329.3653,0,U,57187,999,16742,.22727721E-3,.595E-4,0
VIZARD-METEO (RS38S),2023-091Z,2026-07-07T14:22:27.369696,15.36706979,.00064104,97.5078,258.5012,9.7833,350.3535,0,U,57189,999,16782,.33294795E-3,.11866E-3,0
POLYTECH-UNIVERSE 3 (RS46S),2023-091AB,2026-07-07T13:27:18.020736,15.19318948,.00166536,97.5035,246.2170,62.4488,297.8436,0,U,57191,999,16704,.17636063E-3,.3667E-4,0
UTMN 2 (RS27S),2023-091AP,2026-07-07T13:35:13.303680,15.32575036,.00075518,97.5075,256.0752,18.0579,342.0930,0,U,57203,999,16766,.28717048E-3,.8961E-4,0
